OBJECT_NAME,OBJECT_ID,EPOCH,MEAN_MOTION,ECCENTRICITY,INCLINATION,RA_OF_ASC_NODE,ARG_OF_PERICENTER,MEAN_ANOMALY,EPHEMERIS_TYPE,CLASSIFICATION_TYPE,NORAD_CAT_ID,ELEMENT_SET_NO,REV_AT_EPOCH,BSTAR,MEAN_MOTION_DOT,MEAN_MOTION_DDOT
ONEWEB-0397,2021-132J,2026-07-23T09:00:43.797024,13.18686718,.0001638,87.9203,328.2613,101.6916,258.4400,0,U,50477,999,22638,.13792E-3,.67E-6,0
ONEWEB-0398,2021-132K,2026-07-22T23:51:49.149504,13.11418101,.00020493,87.8898,13.9297,87.1732,272.9631,0,U,50478,999,22030,.13361804E-2,.486E-5,0
ONEWEB-0399,2021-132L,2026-07-23T10:31:28.928064,13.11419183,.0001363,87.8889,13.8526,84.7613,275.3670,0,U,50479,999,22035,-.37289E-3,-.119E-5,0
ONEWEB-0400,2021-132M,2026-07-23T19:24:44.724672,13.18686035,.0002012,87.9206,328.1651,95.6990,264.4372,0,U,50480,999,22643,.69281E-4,.4E-6,0
ONEWEB-0401,2021-132N,2026-07-23T18:41:02.562432,13.18686615,.0001849,87.9215,328.1690,107.3287,252.8047,0,U,50481,999,22643,-.56396E-4,-.9E-7,0
ONEWEB-0402,2021-132P,2026-07-23T14:09:05.684832,13.18685038,.0001827,87.9206,328.1948,113.6601,246.4723,0,U,50482,999,22643,.12748E-3,.63E-6,0
ONEWEB-0403,2021-132Q,2026-07-23T14:45:31.241088,13.18686905,.0001818,87.9203,328.2143,96.4907,263.6432,0,U,50483,999,22639,.22147E-3,.1E-5,0
ONEWEB-0404,2021-132R,2026-07-23T10:04:36.732576,13.11416321,.0001676,87.8894,13.8528,82.2204,277.9114,0,U,50484,999,22044,-.1381E-2,-.477E-5,0
ONEWEB-0405,2021-132S,2026-07-23T07:47:54.118752,13.18686267,.000232,87.9204,328.2572,93.8231,266.3167,0,U,50485,999,22675,.69849E-4,.4E-6,0
ONEWEB-0406,2021-132T,2026-07-23T14:52:47.644032,13.18687058,.0001573,87.9201,328.2130,85.9267,274.2045,0,U,50486,999,22642,.22635E-3,.102E-5,0
ONEWEB-0407,2021-132U,2026-07-23T07:26:02.000832,13.18684513,.00020339,87.9206,328.2679,103.5317,256.6042,0,U,50487,999,22632,.13679201E-3,.67E-6,0
ONEWEB-0409,2021-132V,2026-07-23T00:52:50.227680,13.11416405,.00017728,87.8896,13.9189,82.6728,277.4601,0,U,50488,999,22028,-.14906964E-2,-.516E-5,0
ONEWEB-0412,2021-132W,2026-07-23T14:26:05.402688,13.18687436,.0001769,87.9200,328.2175,108.9757,251.1567,0,U,50489,999,22645,.17748E-3,.83E-6,0
ONEWEB-0413,2021-132X,2026-07-23T07:16:19.642368,13.18684863,.0001936,87.9197,328.2721,108.1050,252.0293,0,U,50490,999,22635,.29801E-4,.25E-6,0
ONEWEB-0414,2021-132Y,2026-07-23T08:43:43.885632,13.18687566,.0001756,87.9206,328.2463,102.2145,257.9184,0,U,50491,999,22639,.18224E-4,.2E-6,0
ONEWEB-0417,2021-132Z,2026-07-23T14:23:39.901632,13.18685455,.0001765,87.9199,328.2158,93.2504,266.8830,0,U,50492,999,22640,.18527E-3,.86E-6,0
ONEWEB-0418,2021-132AA,2026-07-23T18:16:33.511008,13.18686261,.0001758,87.9203,328.1852,91.7853,268.3481,0,U,50493,999,22648,.13261E-3,.65E-6,0
ONEWEB-0419,2021-132AB,2026-07-23T18:44:08.575584,13.18665885,.0001978,87.9218,328.1844,89.4702,270.6657,0,U,50494,999,22640,-.63818E-4,-.12E-6,0
ONEWEB-0420,2021-132AC,2026-07-23T17:52:28.577280,13.18684346,.0002072,87.9204,328.1902,102.3068,257.8296,0,U,50495,999,22639,-.72494E-4,-.16E-6,0
ONEWEB-0421,2021-132AD,2026-07-23T08:36:28.356192,13.18686359,.0001589,87.9202,328.2647,106.6044,253.5263,0,U,50496,999,22638,.62647E-5,.15E-6,0
ONEWEB-0424,2021-132AE,2026-07-23T18:36:10.957248,13.18686605,.0002138,87.9186,328.1799,90.1273,270.0105,0,U,50497,999,22646,-.16357E-4,.6E-7,0
ONEWEB-0426,2021-132AF,2026-07-23T13:58:10.517088,13.18675619,.0001249,87.9201,328.2107,88.1431,271.9844,0,U,50498,999,22638,-.26233E-2,-.1021E-4,0
ONEWEB-0427,2021-132AG,2026-07-23T14:55:13.874304,13.18687209,.0001765,87.9208,328.1926,94.1392,265.9942,0,U,50499,999,22641,.22153E-3,.1E-5,0
ONEWEB-0429,2021-132AH,2026-07-23T07:18:45.024192,13.18684572,.0001977,87.9197,328.2767,101.7144,258.4210,0,U,50500,999,22634,.17158E-4,.2E-6,0
ONEWEB-0430,2021-132AJ,2026-07-23T08:51:00.635904,13.18685291,.0002173,87.9196,328.2632,102.4869,257.6506,0,U,50501,999,22639,.15798E-3,.75E-6,0
ONEWEB-0432,2021-132AK,2026-07-23T13:54:20.333664,13.18686935,.0002299,87.9207,328.2084,94.4161,265.7234,0,U,50502,999,22637,.18673E-3,.87E-6,0
ONEWEB-0440,2021-132AL,2026-07-23T07:30:53.809056,13.18684830,.0001803,87.9205,328.2726,108.7739,251.3589,0,U,50503,999,22633,.11147E-3,.57E-6,0
ONEWEB-0450,2021-132AM,2026-07-23T07:21:22.627296,13.18686847,.0002047,87.9194,328.2756,102.3250,257.8111,0,U,50504,999,22636,.52359E-4,.34E-6,0
ONEWEB-0410,2022-012A,2026-07-23T19:38:39.112800,13.17647891,.0001184,87.9169,358.5743,49.1958,310.9276,0,U,51622,999,21852,.33794E-4,.26E-6,0
ONEWEB-0411,2022-012B,2026-07-23T12:17:35.943648,13.10373333,.0002359,87.8825,29.0289,93.6679,266.4718,0,U,51623,999,21404,.15683E-2,.56E-5,0
