ONEWEB-0397             
1 50477U 21132J   26204.37550691  .00000067  00000+0  13792-3 0  9999
2 50477  87.9203 328.2613 0001638 101.6916 258.4400 13.18686718226384
ONEWEB-0398             
1 50478U 21132K   26203.99431886  .00000486  00000+0  13362-2 0  9998
2 50478  87.8898  13.9297 0002049  87.1732 272.9631 13.11418101220306
ONEWEB-0399             
1 50479U 21132L   26204.43852926 -.00000119  00000+0 -37289-3 0  9991
2 50479  87.8889  13.8526 0001363  84.7613 275.3670 13.11419183220356
ONEWEB-0400             
1 50480U 21132M   26204.80885098  .00000040  00000+0  69281-4 0  9999
2 50480  87.9206 328.1651 0002012  95.6990 264.4372 13.18686035226436
ONEWEB-0401             
1 50481U 21132N   26204.77850188 -.00000009  00000+0 -56396-4 0  9998
2 50481  87.9215 328.1690 0001849 107.3287 252.8047 13.18686615226431
ONEWEB-0402             
1 50482U 21132P   26204.58964913  .00000063  00000+0  12748-3 0  9990
2 50482  87.9206 328.1948 0001827 113.6601 246.4723 13.18685038226432
ONEWEB-0403             
1 50483U 21132Q   26204.61494492  .00000100  00000+0  22147-3 0  9991
2 50483  87.9203 328.2143 0001818  96.4907 263.6432 13.18686905226392
ONEWEB-0404             
1 50484U 21132R   26204.41986959 -.00000477  00000+0 -13810-2 0  9999
2 50484  87.8894  13.8528 0001676  82.2204 277.9114 13.11416321220448
ONEWEB-0405             
1 50485U 21132S   26204.32493193  .00000040  00000+0  69849-4 0  9992
2 50485  87.9204 328.2572 0002320  93.8231 266.3167 13.18686267226757
ONEWEB-0406             
1 50486U 21132T   26204.61999588  .00000102  00000+0  22635-3 0  9994
2 50486  87.9201 328.2130 0001573  85.9267 274.2045 13.18687058226421
ONEWEB-0407             
1 50487U 21132U   26204.30974538  .00000067  00000+0  13679-3 0  9997
2 50487  87.9206 328.2679 0002033 103.5317 256.6042 13.18684513226323
ONEWEB-0409             
1 50488U 21132V   26204.03669245 -.00000516  00000+0 -14907-2 0  9999
2 50488  87.8896  13.9189 0001772  82.6728 277.4601 13.11416405220281
ONEWEB-0412             
1 50489U 21132W   26204.60145142  .00000083  00000+0  17748-3 0  9992
2 50489  87.9200 328.2175 0001769 108.9757 251.1567 13.18687436226455
ONEWEB-0413             
1 50490U 21132X   26204.30300512  .00000025  00000+0  29801-4 0  9995
2 50490  87.9197 328.2721 0001936 108.1050 252.0293 13.18684863226359
ONEWEB-0414             
1 50491U 21132Y   26204.36370238  .00000020  00000+0  18224-4 0  9996
2 50491  87.9206 328.2463 0001756 102.2145 257.9184 13.18687566226394
ONEWEB-0417             
1 50492U 21132Z   26204.59976738  .00000086  00000+0  18527-3 0  9996
2 50492  87.9199 328.2158 0001765  93.2504 266.8830 13.18685455226409
ONEWEB-0418             
1 50493U 21132AA  26204.76149897  .00000065  00000+0  13261-3 0  9991
2 50493  87.9203 328.1852 0001758  91.7853 268.3481 13.18686261226481
ONEWEB-0419             
1 50494U 21132AB  26204.78065481 -.00000012  00000+0 -63818-4 0  9998
2 50494  87.9218 328.1844 0001978  89.4702 270.6657 13.18665885226402
ONEWEB-0420             
1 50495U 21132AC  26204.74477520 -.00000016  00000+0 -72494-4 0  9990
2 50495  87.9204 328.1902 0002072 102.3068 257.8296 13.18684346226396
ONEWEB-0421             
1 50496U 21132AD  26204.35866153  .00000015  00000+0  62647-5 0  9999
2 50496  87.9202 328.2647 0001589 106.6044 253.5263 13.18686359226387
ONEWEB-0424             
1 50497U 21132AE  26204.77512682  .00000006  00000+0 -16357-4 0  9998
2 50497  87.9186 328.1799 0002138  90.1273 270.0105 13.18686605226460
ONEWEB-0426             
1 50498U 21132AF  26204.58206617 -.00001021  00000+0 -26233-2 0  9997
2 50498  87.9201 328.2107 0001249  88.1431 271.9844 13.18675619226382
ONEWEB-0427             
1 50499U 21132AG  26204.62168836  .00000100  00000+0  22153-3 0  9996
2 50499  87.9208 328.1926 0001765  94.1392 265.9942 13.18687209226418
ONEWEB-0429             
1 50500U 21132AH  26204.30468778  .00000020  00000+0  17158-4 0  9993
2 50500  87.9197 328.2767 0001977 101.7144 258.4210 13.18684572226344
ONEWEB-0430             
1 50501U 21132AJ  26204.36875736  .00000075  00000+0  15798-3 0  9993
2 50501  87.9196 328.2632 0002173 102.4869 257.6506 13.18685291226399
ONEWEB-0432             
1 50502U 21132AK  26204.57940201  .00000087  00000+0  18673-3 0  9995
2 50502  87.9207 328.2084 0002299  94.4161 265.7234 13.18686935226370
ONEWEB-0440             
1 50503U 21132AL  26204.31312279  .00000057  00000+0  11147-3 0  9992
2 50503  87.9205 328.2726 0001803 108.7739 251.3589 13.18684830226334
ONEWEB-0450             
1 50504U 21132AM  26204.30651189  .00000034  00000+0  52359-4 0  9994
2 50504  87.9194 328.2756 0002047 102.3250 257.8111 13.18686847226369
ONEWEB-0410             
1 51622U 22012A   26204.81850825  .00000026  00000+0  33794-4 0  9991
2 51622  87.9169 358.5743 0001184  49.1958 310.9276 13.17647891218526
ONEWEB-0411             
1 51623U 22012B   26204.51222157  .00000560  00000+0  15683-2 0  9998
2 51623  87.8825  29.0289 0002359  93.6679 266.4718 13.10373333214048
